start=new Date('2022-04-04T00:00:00.000Z').valueOf();
sats=[{"ARG_OF_PERICENTER":"61.5980","CLASSIFICATION_TYPE":"U","MEAN_MOTION_DDOT":"0.0000000000000","COUNTRY_CODE":"US","OBJECT_NAME":"STARLINK-2753","PERIOD":"95.592","MEAN_ANOMALY":"298.5167","REV_AT_EPOCH":"4769","SITE":"AFETR","SEMIMAJOR_AXIS":"6925.365","BSTAR":"-0.00005189400000","ECCENTRICITY":"0.00015680","APOAPSIS":"548.316","NORAD_CAT_ID":"48696","EPHEMERIS_TYPE":"0","RCS_SIZE":"LARGE","TIME_SYSTEM":"UTC","GP_ID":"200381148","RA_OF_ASC_NODE":"58.0582","REF_FRAME":"TEME","FILE":"3386965","CENTER_NAME":"EARTH","OBJECT_TYPE":"PAYLOAD","MEAN_MOTION_DOT":"-0.00001054","OBJECT_ID":"2021-044BL","TLE_LINE1":"1 48696U 21044BL  22093.69476637 -.00001054  00000-0 -51894-4 0  9991","PERIAPSIS":"546.145","MEAN_ELEMENT_THEORY":"SGP4","MEAN_MOTION":"15.06394485","LAUNCH_DATE":"2021-05-26","TLE_LINE2":"2 48696  53.0568  58.0582 0001568  61.5980 298.5167 15.06394485 47698","INCLINATION":"53.0568","EPOCH":"2022-04-03T16:40:27.814368","ELEMENT_SET_NO":"999","DECAY_DATE":null},{"ECCENTRICITY":"0.00017460","BSTAR":"-0.00012327000000","SEMIMAJOR_AXIS":"6925.374","SITE":"AFETR","REV_AT_EPOCH":"4767","PERIOD":"95.593","MEAN_ANOMALY":"310.6422","OBJECT_NAME":"STARLINK-2715","COUNTRY_CODE":"US","MEAN_MOTION_DDOT":"0.0000000000000","CLASSIFICATION_TYPE":"U","ARG_OF_PERICENTER":"49.4719","ELEMENT_SET_NO":"999","DECAY_DATE":null,"PERIAPSIS":"546.030","MEAN_MOTION":"15.06391688","MEAN_ELEMENT_THEORY":"SGP4","EPOCH":"2022-04-03T14:17:08.699712","LAUNCH_DATE":"2021-05-26","TLE_LINE2":"2 48697  53.0554  58.5079 0001746  49.4719 310.6422 15.06391688 47673","INCLINATION":"53.0554","TLE_LINE1":"1 48697U 21044BM  22093.59523958 -.00002117  00000-0 -12327-3 0  9998","OBJECT_ID":"2021-044BM","MEAN_MOTION_DOT":"-0.00002117","CENTER_NAME":"EARTH","OBJECT_TYPE":"PAYLOAD","FILE":"3386965","RCS_SIZE":"LARGE","GP_ID":"200379896","REF_FRAME":"TEME","RA_OF_ASC_NODE":"58.5079","TIME_SYSTEM":"UTC","EPHEMERIS_TYPE":"0","APOAPSIS":"548.448","NORAD_CAT_ID":"48697"},{"MEAN_MOTION":"15.15950965","PERIAPSIS":"514.619","MEAN_ELEMENT_THEORY":"SGP4","EPOCH":"2022-04-03T22:00:00.999936","LAUNCH_DATE":"2021-06-30","TLE_LINE2":"2 48879  97.5323 225.2035 0005041 185.4173 344.5980 15.15950965 43236","INCLINATION":"97.5323","ELEMENT_SET_NO":"999","DECAY_DATE":null,"OBJECT_ID":"2021-059A","MEAN_MOTION_DOT":"-0.00016062","TLE_LINE1":"1 48879U 21059A   22093.91667824 -.00016062  00000-0 -83623-3 0  9994","FILE":"3386557","OBJECT_TYPE":"PAYLOAD","CENTER_NAME":"EARTH","EPHEMERIS_TYPE":"0","APOAPSIS":"521.571","NORAD_CAT_ID":"48879","RCS_SIZE":"LARGE","GP_ID":"200348476","RA_OF_ASC_NODE":"225.2035","REF_FRAME":"TEME","TIME_SYSTEM":"UTC","BSTAR":"-0.00083623000000","ECCENTRICITY":"0.00050410","SITE":"AFETR","REV_AT_EPOCH":"4323","SEMIMAJOR_AXIS":"6896.230","COUNTRY_CODE":"US","MEAN_MOTION_DDOT":"0.0000000000000","PERIOD":"94.990","MEAN_ANOMALY":"344.5980","OBJECT_NAME":"STARLINK-3003","CLASSIFICATION_TYPE":"U","ARG_OF_PERICENTER":"185.4173"},{"OBJECT_ID":"2021-059B","MEAN_MOTION_DOT":"-0.00006472","TLE_LINE1":"1 48880U 21059B   22093.91667824 -.00006472  00000-0 -33433-3 0  9994","PERIAPSIS":"514.303","MEAN_MOTION":"15.15962637","MEAN_ELEMENT_THEORY":"SGP4","EPOCH":"2022-04-03T22:00:00.999936","TLE_LINE2":"2 48880  97.5318 225.2087 0005448 175.7119  13.8512 15.15962637  3605","INCLINATION":"97.5318","LAUNCH_DATE":"2021-06-30","DECAY_DATE":null,"ELEMENT_SET_NO":"999","EPHEMERIS_TYPE":"0","NORAD_CAT_ID":"48880","APOAPSIS":"521.817","RCS_SIZE":"LARGE","REF_FRAME":"TEME","GP_ID":"200379916","RA_OF_ASC_NODE":"225.2087","TIME_SYSTEM":"UTC","FILE":"3386965","OBJECT_TYPE":"PAYLOAD","CENTER_NAME":"EARTH","REV_AT_EPOCH":"360","SITE":"AFETR","SEMIMAJOR_AXIS":"6896.195","BSTAR":"-0.00033433000000","ECCENTRICITY":"0.00054480","CLASSIFICATION_TYPE":"U","ARG_OF_PERICENTER":"175.7119","COUNTRY_CODE":"US","MEAN_MOTION_DDOT":"0.0000000000000","PERIOD":"94.989","MEAN_ANOMALY":"13.8512","OBJECT_NAME":"STARLINK-3004"},{"COUNTRY_CODE":"US","MEAN_MOTION_DDOT":"0.0000000000000","PERIOD":"94.990","MEAN_ANOMALY":"14.6378","OBJECT_NAME":"STARLINK-3005","CLASSIFICATION_TYPE":"U","ARG_OF_PERICENTER":"167.0455","BSTAR":"-0.00039286000000","ECCENTRICITY":"0.00051950","REV_AT_EPOCH":"360","SITE":"AFETR","SEMIMAJOR_AXIS":"6896.223","FILE":"3386965","CENTER_NAME":"EARTH","OBJECT_TYPE":"PAYLOAD","EPHEMERIS_TYPE":"0","APOAPSIS":"521.671","NORAD_CAT_ID":"48881","RCS_SIZE":"LARGE","REF_FRAME":"TEME","GP_ID":"200380166","RA_OF_ASC_NODE":"225.2239","TIME_SYSTEM":"UTC","PERIAPSIS":"514.506","MEAN_MOTION":"15.15953126","MEAN_ELEMENT_THEORY":"SGP4","EPOCH":"2022-04-03T22:00:00.999936","INCLINATION":"97.5323","TLE_LINE2":"2 48881  97.5323 225.2239 0005195 167.0455  14.6378 15.15953126  3609","LAUNCH_DATE":"2021-06-30","DECAY_DATE":null,"ELEMENT_SET_NO":"999","OBJECT_ID":"2021-059C","MEAN_MOTION_DOT":"-0.00007590","TLE_LINE1":"1 48881U 21059C   22093.91667824 -.00007590  00000-0 -39286-3 0  9999"},{"OBJECT_TYPE":"PAYLOAD","CENTER_NAME":"EARTH","FILE":"3386965","REF_FRAME":"TEME","GP_ID":"200380444","RA_OF_ASC_NODE":"280.4585","TIME_SYSTEM":"UTC","RCS_SIZE":"LARGE","EPHEMERIS_TYPE":"0","APOAPSIS":"415.810","NORAD_CAT_ID":"49131","ELEMENT_SET_NO":"999","DECAY_DATE":null,"EPOCH":"2022-04-03T22:00:00.999936","LAUNCH_DATE":"2021-09-14","TLE_LINE2":"2 49131  69.9975 280.4585 0003680 262.8322   5.8752 15.51169999  3688","INCLINATION":"69.9975","PERIAPSIS":"410.812","MEAN_ELEMENT_THEORY":"SGP4","MEAN_MOTION":"15.51169999","TLE_LINE1":"1 49131U 21082B   22093.91667824  .00057820  00000-0  98182-3 0  9993","OBJECT_ID":"2021-082B","MEAN_MOTION_DOT":"0.00057820","PERIOD":"92.833","MEAN_ANOMALY":"5.8752","OBJECT_NAME":"STARLINK-3096","COUNTRY_CODE":"US","MEAN_MOTION_DDOT":"0.0000000000000","CLASSIFICATION_TYPE":"U","ARG_OF_PERICENTER":"262.8322","ECCENTRICITY":"0.00036800","BSTAR":"0.00098182000000","SEMIMAJOR_AXIS":"6791.446","REV_AT_EPOCH":"368","SITE":"AFWTR"},{"EPOCH":"2022-04-03T22:00:00.999936","TLE_LINE2":"2 49132  70.0002 314.5416 0003155 284.9748  58.3567 14.98318773  3570","INCLINATION":"70.0002","LAUNCH_DATE":"2021-09-14","MEAN_ELEMENT_THEORY":"SGP4","PERIAPSIS":"569.900","MEAN_MOTION":"14.98318773","ELEMENT_SET_NO":"999","DECAY_DATE":null,"OBJECT_ID":"2021-082C","MEAN_MOTION_DOT":"0.00017570","TLE_LINE1":"1 49132U 21082C   22093.91667824  .00017570  00000-0  14770-2 0  9992","FILE":"3386965","OBJECT_TYPE":"PAYLOAD","CENTER_NAME":"EARTH","EPHEMERIS_TYPE":"0","NORAD_CAT_ID":"49132","APOAPSIS":"574.285","GP_ID":"200380694","REF_FRAME":"TEME","RA_OF_ASC_NODE":"314.5416","TIME_SYSTEM":"UTC","RCS_SIZE":"LARGE","BSTAR":"0.00147700000000","ECCENTRICITY":"0.00031550","SITE":"AFWTR","REV_AT_EPOCH":"357","SEMIMAJOR_AXIS":"6950.228","COUNTRY_CODE":"US","MEAN_MOTION_DDOT":"0.0000000000000","MEAN_ANOMALY":"58.3567","PERIOD":"96.108","OBJECT_NAME":"STARLINK-3090","CLASSIFICATION_TYPE":"U","ARG_OF_PERICENTER":"284.9748"},{"TLE_LINE1":"1 49133U 21082D   22093.91667824  .00016906  00000-0  14217-2 0  9991","MEAN_MOTION_DOT":"0.00016906","OBJECT_ID":"2021-082D","ELEMENT_SET_NO":"999","DECAY_DATE":null,"PERIAPSIS":"569.872","MEAN_MOTION":"14.98317028","MEAN_ELEMENT_THEORY":"SGP4","INCLINATION":"70.0007","TLE_LINE2":"2 49133  70.0007 314.5466 0003203 279.7127  89.3471 14.98317028  3589","LAUNCH_DATE":"2021-09-14","EPOCH":"2022-04-03T22:00:00.999936","RCS_SIZE":"LARGE","TIME_SYSTEM":"UTC","GP_ID":"200381446","RA_OF_ASC_NODE":"314.5466","REF_FRAME":"TEME","NORAD_CAT_ID":"49133","APOAPSIS":"574.324","EPHEMERIS_TYPE":"0","CENTER_NAME":"EARTH","OBJECT_TYPE":"PAYLOAD","FILE":"3386965","SEMIMAJOR_AXIS":"6950.233","SITE":"AFWTR","REV_AT_EPOCH":"358","ECCENTRICITY":"0.00032030","BSTAR":"0.00142170000000","ARG_OF_PERICENTER":"279.7127","CLASSIFICATION_TYPE":"U","OBJECT_NAME":"STARLINK-3077","MEAN_ANOMALY":"89.3471","PERIOD":"96.108","MEAN_MOTION_DDOT":"0.0000000000000","COUNTRY_CODE":"US"},{"TLE_LINE1":"1 49134U 21082E   22093.91667824  .00015986  00000-0  13453-2 0  9990","OBJECT_ID":"2021-082E","MEAN_MOTION_DOT":"0.00015986","DECAY_DATE":null,"ELEMENT_SET_NO":"999","EPOCH":"2022-04-03T22:00:00.999936","TLE_LINE2":"2 49134  69.9995 314.5327 0003255 286.7572 107.9777 14.98306008  3579","LAUNCH_DATE":"2021-09-14","INCLINATION":"69.9995","PERIAPSIS":"569.870","MEAN_ELEMENT_THEORY":"SGP4","MEAN_MOTION":"14.98306008","GP_ID":"200381197","RA_OF_ASC_NODE":"314.5327","REF_FRAME":"TEME","TIME_SYSTEM":"UTC","RCS_SIZE":"LARGE","EPHEMERIS_TYPE":"0","APOAPSIS":"574.394","NORAD_CAT_ID":"49134","CENTER_NAME":"EARTH","OBJECT_TYPE":"PAYLOAD","FILE":"3386965","SEMIMAJOR_AXIS":"6950.267","REV_AT_EPOCH":"357","SITE":"AFWTR","ECCENTRICITY":"0.00032550","BSTAR":"0.00134530000000","CLASSIFICATION_TYPE":"U","ARG_OF_PERICENTER":"286.7572","MEAN_ANOMALY":"107.9777","PERIOD":"96.109","OBJECT_NAME":"STARLINK-3078","COUNTRY_CODE":"US","MEAN_MOTION_DDOT":"0.0000000000000"},{"FILE":"3386965","OBJECT_TYPE":"PAYLOAD","CENTER_NAME":"EARTH","NORAD_CAT_ID":"49135","APOAPSIS":"386.266","EPHEMERIS_TYPE":"0","TIME_SYSTEM":"UTC","GP_ID":"200379945","RA_OF_ASC_NODE":"279.7802","REF_FRAME":"TEME","RCS_SIZE":"LARGE","LAUNCH_DATE":"2021-09-14","TLE_LINE2":"2 49135  70.0000 279.7802 0003422 266.9113 238.8659 15.61282859  3680","INCLINATION":"70.0000","EPOCH":"2022-04-03T22:00:00.999936","MEAN_ELEMENT_THEORY":"SGP4","PERIAPSIS":"381.638","MEAN_MOTION":"15.61282859","DECAY_DATE":null,"ELEMENT_SET_NO":"999","MEAN_MOTION_DOT":"-0.00712033","OBJECT_ID":"2021-082F","TLE_LINE1":"1 49135U 21082F   22093.91667824 -.00712033  00000-0 -91097-2 0  9990","MEAN_MOTION_DDOT":"0.0000000000000","COUNTRY_CODE":"US","OBJECT_NAME":"STARLINK-3073","PERIOD":"92.232","MEAN_ANOMALY":"238.8659","ARG_OF_PERICENTER":"266.9113","CLASSIFICATION_TYPE":"U","BSTAR":"-0.00910970000000","ECCENTRICITY":"0.00034220","SITE":"AFWTR","REV_AT_EPOCH":"368","SEMIMAJOR_AXIS":"6762.087"}];
